SL-14 R/B               
1 16792U 86046B   26017.54936933  .00000387  00000+0  41735-4 0  9998
2 16792  82.4836 128.4977 0024034  40.0306 320.2675 14.85529754118816
SL-14 R/B               
1 16882U 86055B   26017.67187981  .00000449  00000+0  48917-4 0  9991
2 16882  82.5209 174.6078 0019903 137.8188 233.3125 14.85573891111793
AJISAI (EGS)            
1 16908U 86061A   26017.64772786 -.00000091  00000+0  48285-4 0  9999
2 16908  50.0081 250.3036 0011291 156.1471 306.5996 12.44514991461647
COSMOS 1812             
1 17295U 87003A   26017.64359474  .00142020  00000+0  60742-3 0  9990
2 17295  82.4829 252.8966 0002469  44.5258 315.6209 15.84751769136320
SL-14 R/B               
1 17567U 87024B   26017.60137117  .00000429  00000+0  46102-4 0  9990
2 17567  82.5302 140.7680 0019645  71.6163 288.7187 14.86070009 80546
COSMOS 1833             
1 17589U 87027A   26017.60861629  .00000302  00000+0  18715-3 0  9997
2 17589  70.9193  73.3803 0024237 282.3978  77.4430 14.13045771  3104
SL-16 R/B               
1 17590U 87027B   26017.44785542 -.00000185  00000+0 -67752-4 0  9997
2 17590  71.0033  24.4722 0006373 221.4606 138.6035 14.17160069  8086
SL-14 R/B               
1 17912U 87038B   26017.63737621  .00000450  00000+0  49433-4 0  9992
2 17912  82.5028 344.8863 0018683 338.0786  21.9628 14.85303174 71657
COSMOS 1844             
1 17973U 87041A   26017.55621890 -.00000303  00000+0 -13242-3 0  9991
2 17973  70.8996 142.0300 0028260  99.9712 260.4602 14.14536781996355
SL-14 R/B               
1 18153U 87055B   26017.48835416  .00000381  00000+0  41118-4 0  9998
2 18153  82.4976  37.2902 0020669 178.5727 181.5552 14.85560555 62334
COSMOS 1867             
1 18187U 87060A   26017.58190099 -.00000048  00000+0  19562-4 0  9992
2 18187  65.0109  89.8312 0013881 274.5946  85.3553 14.31492988 12626
SL-14 R/B               
1 18749U 88001B   26017.61499428  .00000352  00000+0  37925-4 0  9994
2 18749  82.5112 243.4049 0019265  50.3622 309.9290 14.85463253 34445
