CCSDS_OMM_VERS = 2.0
CREATION_DATE  = 
ORIGINATOR     = 

OBJECT_NAME    = SL-14 R/B
OBJECT_ID      = 1986-046B
CENTER_NAME    = EARTH
REF_FRAME      = TEME
TIME_SYSTEM    = UTC
MEAN_ELEMENT_THEORY = SGP/SGP4

EPOCH          = 2026-01-17T13:11:05.510112
MEAN_MOTION    = 14.85529754
ECCENTRICITY   = .00240346
INCLINATION    = 82.4836
RA_OF_ASC_NODE = 128.4977
ARG_OF_PERICENTER = 40.0306
MEAN_ANOMALY   = 320.2675

EPHEMERIS_TYPE = 0
CLASSIFICATION_TYPE = U
NORAD_CAT_ID   = 16792
ELEMENT_SET_NO = 999
REV_AT_EPOCH   = 11881
BSTAR          = .41734876E-4
MEAN_MOTION_DOT = .387E-5
MEAN_MOTION_DDOT = 0

CCSDS_OMM_VERS = 2.0
CREATION_DATE  = 
ORIGINATOR     = 

OBJECT_NAME    = SL-14 R/B
OBJECT_ID      = 1986-055B
CENTER_NAME    = EARTH
REF_FRAME      = TEME
TIME_SYSTEM    = UTC
MEAN_ELEMENT_THEORY = SGP/SGP4

EPOCH          = 2026-01-17T16:07:30.415584
MEAN_MOTION    = 14.85573891
ECCENTRICITY   = .00199033
INCLINATION    = 82.5209
RA_OF_ASC_NODE = 174.6078
ARG_OF_PERICENTER = 137.8188
MEAN_ANOMALY   = 233.3125

EPHEMERIS_TYPE = 0
CLASSIFICATION_TYPE = U
NORAD_CAT_ID   = 16882
ELEMENT_SET_NO = 999
REV_AT_EPOCH   = 11179
BSTAR          = .48917217E-4
MEAN_MOTION_DOT = .449E-5
MEAN_MOTION_DDOT = 0

CCSDS_OMM_VERS = 2.0
CREATION_DATE  = 
ORIGINATOR     = 

OBJECT_NAME    = AJISAI (EGS)
OBJECT_ID      = 1986-061A
CENTER_NAME    = EARTH
REF_FRAME      = TEME
TIME_SYSTEM    = UTC
MEAN_ELEMENT_THEORY = SGP/SGP4

EPOCH          = 2026-01-17T15:32:43.687104
MEAN_MOTION    = 12.44514991
ECCENTRICITY   = .00112916
INCLINATION    = 50.0081
RA_OF_ASC_NODE = 250.3036
ARG_OF_PERICENTER = 156.1471
MEAN_ANOMALY   = 306.5996

EPHEMERIS_TYPE = 0
CLASSIFICATION_TYPE = U
NORAD_CAT_ID   = 16908
ELEMENT_SET_NO = 999
REV_AT_EPOCH   = 46164
BSTAR          = .48284934E-4
MEAN_MOTION_DOT = -.91E-6
MEAN_MOTION_DDOT = 0

CCSDS_OMM_VERS = 2.0
CREATION_DATE  = 
ORIGINATOR     = 

OBJECT_NAME    = COSMOS 1812
OBJECT_ID      = 1987-003A
CENTER_NAME    = EARTH
REF_FRAME      = TEME
TIME_SYSTEM    = UTC
MEAN_ELEMENT_THEORY = SGP/SGP4

EPOCH          = 2026-01-17T15:26:46.585536
MEAN_MOTION    = 15.84751769
ECCENTRICITY   = .00024697
INCLINATION    = 82.4829
RA_OF_ASC_NODE = 252.8966
ARG_OF_PERICENTER = 44.5258
MEAN_ANOMALY   = 315.6209

EPHEMERIS_TYPE = 0
CLASSIFICATION_TYPE = U
NORAD_CAT_ID   = 17295
ELEMENT_SET_NO = 999
REV_AT_EPOCH   = 13632
BSTAR          = .60742123E-3
MEAN_MOTION_DOT = .14202E-2
MEAN_MOTION_DDOT = 0

CCSDS_OMM_VERS = 2.0
CREATION_DATE  = 
ORIGINATOR     = 

OBJECT_NAME    = SL-14 R/B
OBJECT_ID      = 1987-024B
CENTER_NAME    = EARTH
REF_FRAME      = TEME
TIME_SYSTEM    = UTC
MEAN_ELEMENT_THEORY = SGP/SGP4

EPOCH          = 2026-01-17T14:25:58.469088
MEAN_MOTION    = 14.86070009
ECCENTRICITY   = .00196453
INCLINATION    = 82.5302
RA_OF_ASC_NODE = 140.7680
ARG_OF_PERICENTER = 71.6163
MEAN_ANOMALY   = 288.7187

EPHEMERIS_TYPE = 0
CLASSIFICATION_TYPE = U
NORAD_CAT_ID   = 17567
ELEMENT_SET_NO = 999
REV_AT_EPOCH   = 8054
BSTAR          = .46102184E-4
MEAN_MOTION_DOT = .429E-5
MEAN_MOTION_DDOT = 0

CCSDS_OMM_VERS = 2.0
CREATION_DATE  = 
ORIGINATOR     = 

OBJECT_NAME    = COSMOS 1833
OBJECT_ID      = 1987-027A
CENTER_NAME    = EARTH
REF_FRAME      = TEME
TIME_SYSTEM    = UTC
MEAN_ELEMENT_THEORY = SGP/SGP4

EPOCH          = 2026-01-17T14:36:24.447456
MEAN_MOTION    = 14.13045771
ECCENTRICITY   = .00242372
INCLINATION    = 70.9193
RA_OF_ASC_NODE = 73.3803
ARG_OF_PERICENTER = 282.3978
MEAN_ANOMALY   = 77.4430

EPHEMERIS_TYPE = 0
CLASSIFICATION_TYPE = U
NORAD_CAT_ID   = 17589
ELEMENT_SET_NO = 999
REV_AT_EPOCH   = 310
BSTAR          = .18715105E-3
MEAN_MOTION_DOT = .302E-5
MEAN_MOTION_DDOT = 0

CCSDS_OMM_VERS = 2.0
CREATION_DATE  = 
ORIGINATOR     = 

OBJECT_NAME    = SL-16 R/B
OBJECT_ID      = 1987-027B
CENTER_NAME    = EARTH
REF_FRAME      = TEME
TIME_SYSTEM    = UTC
MEAN_ELEMENT_THEORY = SGP/SGP4

EPOCH          = 2026-01-17T10:44:54.708288
MEAN_MOTION    = 14.17160069
ECCENTRICITY   = .00063738
INCLINATION    = 71.0033
RA_OF_ASC_NODE = 24.4722
ARG_OF_PERICENTER = 221.4606
MEAN_ANOMALY   = 138.6035

EPHEMERIS_TYPE = 0
CLASSIFICATION_TYPE = U
NORAD_CAT_ID   = 17590
ELEMENT_SET_NO = 999
REV_AT_EPOCH   = 808
BSTAR          = -.67752345E-4
MEAN_MOTION_DOT = -.185E-5
MEAN_MOTION_DDOT = 0

CCSDS_OMM_VERS = 2.0
CREATION_DATE  = 
ORIGINATOR     = 

OBJECT_NAME    = SL-14 R/B
OBJECT_ID      = 1987-038B
CENTER_NAME    = EARTH
REF_FRAME      = TEME
TIME_SYSTEM    = UTC
MEAN_ELEMENT_THEORY = SGP/SGP4

EPOCH          = 2026-01-17T15:17:49.304544
MEAN_MOTION    = 14.85303174
ECCENTRICITY   = .00186832
INCLINATION    = 82.5028
RA_OF_ASC_NODE = 344.8863
ARG_OF_PERICENTER = 338.0786
MEAN_ANOMALY   = 21.9628

EPHEMERIS_TYPE = 0
CLASSIFICATION_TYPE = U
NORAD_CAT_ID   = 17912
ELEMENT_SET_NO = 999
REV_AT_EPOCH   = 7165
BSTAR          = .49432868E-4
MEAN_MOTION_DOT = .45E-5
MEAN_MOTION_DDOT = 0

CCSDS_OMM_VERS = 2.0
CREATION_DATE  = 
ORIGINATOR     = 

OBJECT_NAME    = COSMOS 1844
OBJECT_ID      = 1987-041A
CENTER_NAME    = EARTH
REF_FRAME      = TEME
TIME_SYSTEM    = UTC
MEAN_ELEMENT_THEORY = SGP/SGP4

EPOCH          = 2026-01-17T13:20:57.312960
MEAN_MOTION    = 14.14536781
ECCENTRICITY   = .00282609
INCLINATION    = 70.8996
RA_OF_ASC_NODE = 142.0300
ARG_OF_PERICENTER = 99.9712
MEAN_ANOMALY   = 260.4602

EPHEMERIS_TYPE = 0
CLASSIFICATION_TYPE = U
NORAD_CAT_ID   = 17973
ELEMENT_SET_NO = 999
REV_AT_EPOCH   = 99635
BSTAR          = -.13242386E-3
MEAN_MOTION_DOT = -.303E-5
MEAN_MOTION_DDOT = 0

CCSDS_OMM_VERS = 2.0
CREATION_DATE  = 
ORIGINATOR     = 

OBJECT_NAME    = SL-14 R/B
OBJECT_ID      = 1987-055B
CENTER_NAME    = EARTH
REF_FRAME      = TEME
TIME_SYSTEM    = UTC
MEAN_ELEMENT_THEORY = SGP/SGP4

EPOCH          = 2026-01-17T11:43:13.799424
MEAN_MOTION    = 14.85560555
ECCENTRICITY   = .00206695
INCLINATION    = 82.4976
RA_OF_ASC_NODE = 37.2902
ARG_OF_PERICENTER = 178.5727
MEAN_ANOMALY   = 181.5552

EPHEMERIS_TYPE = 0
CLASSIFICATION_TYPE = U
NORAD_CAT_ID   = 18153
ELEMENT_SET_NO = 999
REV_AT_EPOCH   = 6233
BSTAR          = .41118296E-4
MEAN_MOTION_DOT = .381E-5
MEAN_MOTION_DDOT = 0

CCSDS_OMM_VERS = 2.0
CREATION_DATE  = 
ORIGINATOR     = 

OBJECT_NAME    = COSMOS 1867
OBJECT_ID      = 1987-060A
CENTER_NAME    = EARTH
REF_FRAME      = TEME
TIME_SYSTEM    = UTC
MEAN_ELEMENT_THEORY = SGP/SGP4

EPOCH          = 2026-01-17T13:57:56.245536
MEAN_MOTION    = 14.31492988
ECCENTRICITY   = .0013881
INCLINATION    = 65.0109
RA_OF_ASC_NODE = 89.8312
ARG_OF_PERICENTER = 274.5946
MEAN_ANOMALY   = 85.3553

EPHEMERIS_TYPE = 0
CLASSIFICATION_TYPE = U
NORAD_CAT_ID   = 18187
ELEMENT_SET_NO = 999
REV_AT_EPOCH   = 1262
BSTAR          = .19562031E-4
MEAN_MOTION_DOT = -.48E-6
MEAN_MOTION_DDOT = 0

CCSDS_OMM_VERS = 2.0
CREATION_DATE  = 
ORIGINATOR     = 

OBJECT_NAME    = SL-14 R/B
OBJECT_ID      = 1988-001B
CENTER_NAME    = EARTH
REF_FRAME      = TEME
TIME_SYSTEM    = UTC
MEAN_ELEMENT_THEORY = SGP/SGP4

EPOCH          = 2026-01-17T14:45:35.505792
MEAN_MOTION    = 14.85463253
ECCENTRICITY   = .00192655
INCLINATION    = 82.5112
RA_OF_ASC_NODE = 243.4049
ARG_OF_PERICENTER = 50.3622
MEAN_ANOMALY   = 309.9290

EPHEMERIS_TYPE = 0
CLASSIFICATION_TYPE = U
NORAD_CAT_ID   = 18749
ELEMENT_SET_NO = 999
REV_AT_EPOCH   = 3444
BSTAR          = .3792458E-4
MEAN_MOTION_DOT = .352E-5
MEAN_MOTION_DDOT = 0

